[{"OBJECT_NAME":"YAOGAN-30 06C","OBJECT_ID":"2019-045C","EPOCH":"2026-03-09T20:24:37.552032","MEAN_MOTION":15.02172666,"ECCENTRICITY":0.00010812,"INCLINATION":34.9925,"RA_OF_ASC_NODE":214.7382,"ARG_OF_PERICENTER":261.6749,"MEAN_ANOMALY":98.3837,"EPHEMERIS_TYPE":0,"CLASSIFICATION_TYPE":"U","NORAD_CAT_ID":44451,"ELEMENT_SET_NO":999,"REV_AT_EPOCH":36160,"BSTAR":0.00032595529,"MEAN_MOTION_DOT":4.352e-5,"MEAN_MOTION_DDOT":0},{"OBJECT_NAME":"STARLINK-5739","OBJECT_ID":"2023-020C","EPOCH":"2026-03-09T03:28:55.193664","MEAN_MOTION":15.02532576,"ECCENTRICITY":8.295e-5,"INCLINATION":43.0046,"RA_OF_ASC_NODE":7.92,"ARG_OF_PERICENTER":285.7649,"MEAN_ANOMALY":74.3102,"EPHEMERIS_TYPE":0,"CLASSIFICATION_TYPE":"U","NORAD_CAT_ID":55571,"ELEMENT_SET_NO":999,"REV_AT_EPOCH":16883,"BSTAR":2.0626068e-5,"MEAN_MOTION_DOT":7.5e-7,"MEAN_MOTION_DDOT":0}]
